OBJECT_NAME,OBJECT_ID,EPOCH,MEAN_MOTION,ECCENTRICITY,INCLINATION,RA_OF_ASC_NODE,ARG_OF_PERICENTER,MEAN_ANOMALY,EPHEMERIS_TYPE,CLASSIFICATION_TYPE,NORAD_CAT_ID,ELEMENT_SET_NO,REV_AT_EPOCH,BSTAR,MEAN_MOTION_DOT,MEAN_MOTION_DDOT
KUZGTU 1 (RS47S),2023-091AV,2026-07-09T04:53:12.599520,15.30380625,.00107218,97.5054,254.9135,27.4149,332.7655,0,U,57217,999,16774,.305364E-3,.891E-4,0
SONATE-2,2024-043Q,2026-07-08T22:53:38.446944,15.60447177,.00068513,97.5551,341.7151,125.1780,235.0119,0,U,59112,999,13128,.39917745E-3,.32794E-3,0
MESAT1,2024-125G,2026-07-09T01:05:49.324128,15.65828598,.00109304,97.2271,48.0631,131.4218,228.7983,0,U,60209,999,11298,.48114525E-3,.48984E-3,0
OOV-CUBE (TUBSAT-30),2024-128F,2026-07-08T14:43:31.268640,15.02856535,.00419329,61.9939,150.8549,138.4682,221.9608,0,U,60240,999,10933,.1147729E-3,.1358E-4,0
COLIBRI-S (RS67S),2024-199M,2026-07-09T07:06:21.381120,15.48672546,.00082187,97.2970,64.3620,183.3099,176.8099,0,U,61746,999,14083,.32798043E-3,.1749E-3,0
HORS 3 (RS81S),2024-199U,2026-07-09T06:43:14.279232,15.56591501,.00063488,97.2950,66.5818,174.7575,185.3748,0,U,61753,999,14099,.43432893E-3,.30866E-3,0
HORS 4 (RS82S),2024-199V,2026-07-09T07:09:19.539648,15.61922576,.00063435,97.2891,67.9537,165.1073,195.0373,0,U,61754,999,14109,.48850437E-3,.42545E-3,0
SIT-2086,2024-199AF,2026-07-09T06:50:36.501216,15.54701246,.00075177,97.2908,66.9867,162.8082,197.3428,0,U,61764,999,13786,.47893186E-3,.31775E-3,0
HYPERVIEW 1G (RS66S),2024-199AP,2026-07-09T07:17:44.088000,15.83295203,.00080103,97.2819,71.2486,160.3731,199.7849,0,U,61772,999,13816,.86855234E-3,.190897E-2,0
ALTAIR (RS65S),2024-199AW,2026-07-09T07:25:19.495488,15.37430487,.00114168,97.3008,59.5172,219.1192,140.9229,0,U,61779,999,14051,.16253733E-3,.5894E-4,0
ASRTU-1 (AO-123),2024-199AY,2026-07-09T06:03:00.203616,15.35996713,.0012406,97.2978,58.7255,223.3796,136.6473,0,U,61781,999,13731,.16309496E-3,.5648E-4,0
SAMSAT-IONOSPHERE (RS75S),2024-199BB,2026-07-09T06:33:43.753248,15.59697632,.00084589,97.2914,66.7083,179.9312,180.1947,0,U,61784,999,14100,.52959926E-3,.42398E-3,0
RTU MIREA 1 (RS51S),2024-199BC,2026-07-09T07:25:23.573568,15.63718801,.00086105,97.2898,67.6990,174.0804,186.0558,0,U,61785,999,13792,.56212111E-3,.52625E-3,0
TEVEL2-4,2025-052D,2026-07-09T03:37:12.809280,15.35417814,.00040432,97.3875,86.5872,63.9062,296.2597,0,U,63213,999,7348,.43161502E-3,.14785E-3,0
TEVEL2-5,2025-052E,2026-07-08T15:39:31.999680,15.35218873,.00041301,97.3873,86.0291,66.2017,293.9660,0,U,63214,999,7340,.41324257E-3,.14062E-3,0
TEVEL2-6,2025-052F,2026-07-09T02:55:00.959232,15.35195585,.00040012,97.3875,86.4843,68.4132,291.7537,0,U,63215,999,7347,.40369887E-3,.13724E-3,0
TEVEL2-1,2025-052H,2026-07-06T16:20:01.551264,15.34567986,.0004748,97.3844,83.6383,76.8203,283.3570,0,U,63217,999,7308,.45647174E-3,.15226E-3,0
TEVEL2-3,2025-052J,2026-07-08T16:41:55.474944,15.34682438,.00044466,97.3853,85.6806,73.4678,286.7053,0,U,63218,999,7339,.39085683E-3,.13069E-3,0
TEVEL2-2,2025-052K,2026-07-08T12:09:23.175072,15.34625790,.00047047,97.3852,85.4689,73.9445,286.2316,0,U,63219,999,7336,.39012445E-3,.13021E-3,0
OTP-2,2025-052AB,2026-07-08T16:41:56.134176,15.24281264,.00083083,97.3844,81.8058,88.6263,271.5926,0,U,63235,999,7314,.20138375E-3,.4852E-4,0
TEVEL2-9,2025-052AD,2026-07-08T15:25:07.851072,15.32589963,.0008135,97.3915,84.9331,74.7614,285.4527,0,U,63237,999,7331,.40917582E-3,.12819E-3,0
TEVEL2-7,2025-052AE,2026-07-09T03:28:24.185568,15.32290225,.00081773,97.3915,85.3410,73.4228,286.7911,0,U,63238,999,7338,.40596154E-3,.12598E-3,0
TEVEL2-8,2025-052AF,2026-07-08T16:42:19.133856,15.32263765,.00081757,97.3912,84.8694,75.3495,284.8653,0,U,63239,999,7331,.37502066E-3,.11621E-3,0
INNOSAT 16 (RS92S7),2025-155C,2026-07-09T07:16:27.369984,15.25696957,.0012415,97.4574,157.3649,106.0429,254.2177,0,U,64878,999,8404,.16371036E-3,.4105E-4,0
GEOSCAN 6 (RS92S6),2025-155D,2026-07-09T06:46:19.363584,15.30577856,.00100222,97.4564,158.9269,98.7310,261.5067,0,U,64879,999,8414,.2352995E-3,.6888E-4,0
GEOSCAN 1 (RS92S1),2025-155E,2026-07-09T06:37:01.062336,15.31218188,.0009951,97.4561,159.0882,98.8445,261.3923,0,U,64880,999,8415,.28009112E-3,.838E-4,0
239ALFEROV (RS61S),2025-155F,2026-07-09T06:40:23.602944,15.33557770,.00096342,97.4560,159.7284,98.2467,261.9868,0,U,64881,999,8419,.35069298E-3,.11317E-3,0
GEOSCAN 2 (RS92S2),2025-155Q,2026-07-09T06:22:25.934016,15.31476927,.00092625,97.4560,159.2391,88.8309,271.3993,0,U,64890,999,8416,.2845633E-3,.8583E-4,0
GEOSCAN 5 (RS92S5),2025-155R,2026-07-09T06:18:04.239648,15.33866635,.00086361,97.4551,159.8586,102.3419,257.8790,0,U,64891,999,8420,.3387553E-3,.11032E-3,0
GEOSCAN 4 (RS92S4),2025-155S,2026-07-09T05:52:00.961248,15.34031176,.00085956,97.4556,159.8953,102.4707,257.7498,0,U,64892,999,8420,.34233473E-3,.11208E-3,0
