KUZGTU 1 (RS47S)        
1 57217U 23091AV  26190.20361805  .00008910  00000+0  30536-3 0  9997
2 57217  97.5054 254.9135 0010721  27.4149 332.7655 15.30380625167740
SONATE-2                
1 59112U 24043Q   26189.95391721  .00032794  00000+0  39918-3 0  9991
2 59112  97.5551 341.7151 0006851 125.1780 235.0119 15.60447177131286
MESAT1                  
1 60209U 24125G   26190.04570977  .00048984  00000+0  48115-3 0  9992
2 60209  97.2271  48.0631 0010930 131.4218 228.7983 15.65828598112989
OOV-CUBE (TUBSAT-30)    
1 60240U 24128F   26189.61355635  .00001358  00000+0  11477-3 0  9998
2 60240  61.9939 150.8549 0041932 138.4682 221.9608 15.02856535109338
COLIBRI-S (RS67S)       
1 61746U 24199M   26190.29608080  .00017490  00000+0  32798-3 0  9992
2 61746  97.2970  64.3620 0008218 183.3099 176.8099 15.48672546140837
HORS 3 (RS81S)          
1 61753U 24199U   26190.28002638  .00030866  00000+0  43433-3 0  9996
2 61753  97.2950  66.5818 0006348 174.7575 185.3748 15.56591501140994
HORS 4 (RS82S)          
1 61754U 24199V   26190.29814282  .00042545  00000+0  48850-3 0  9999
2 61754  97.2891  67.9537 0006343 165.1073 195.0373 15.61922576141094
SIT-2086                
1 61764U 24199AF  26190.28514469  .00031775  00000+0  47893-3 0  9992
2 61764  97.2908  66.9867 0007517 162.8082 197.3428 15.54701246137864
HYPERVIEW 1G (RS66S)    
1 61772U 24199AP  26190.30398250  .00190897  00000+0  86855-3 0  9994
2 61772  97.2819  71.2486 0008010 160.3731 199.7849 15.83295203138163
ALTAIR (RS65S)          
1 61779U 24199AW  26190.30925342  .00005894  00000+0  16254-3 0  9997
2 61779  97.3008  59.5172 0011416 219.1192 140.9229 15.37430487140516
ASRTU-1 (AO-123)        
1 61781U 24199AY  26190.25208569  .00005648  00000+0  16309-3 0  9997
2 61781  97.2978  58.7255 0012406 223.3796 136.6473 15.35996713137318
SAMSAT-IONOSPHERE (RS7*)
1 61784U 24199BB  26190.27342307  .00042398  00000+0  52960-3 0  9997
2 61784  97.2914  66.7083 0008458 179.9312 180.1947 15.59697632141006
RTU MIREA 1 (RS51S)     
1 61785U 24199BC  26190.30930062  .00052625  00000+0  56212-3 0  9991
2 61785  97.2898  67.6990 0008610 174.0804 186.0558 15.63718801137923
TEVEL2-4                
1 63213U 25052D   26190.15084270  .00014785  00000+0  43162-3 0  9997
2 63213  97.3875  86.5872 0004043  63.9062 296.2597 15.35417814 73480
TEVEL2-5                
1 63214U 25052E   26189.65245370  .00014062  00000+0  41324-3 0  9997
2 63214  97.3873  86.0291 0004130  66.2017 293.9660 15.35218873 73403
TEVEL2-6                
1 63215U 25052F   26190.12153888  .00013724  00000+0  40370-3 0  9998
2 63215  97.3875  86.4843 0004001  68.4132 291.7537 15.35195585 73472
TEVEL2-1                
1 63217U 25052H   26187.68057351  .00015226  00000+0  45647-3 0  9996
2 63217  97.3844  83.6383 0004748  76.8203 283.3570 15.34567986 73086
TEVEL2-3                
1 63218U 25052J   26189.69578096  .00013069  00000+0  39086-3 0  9997
2 63218  97.3853  85.6806 0004446  73.4678 286.7053 15.34682438 73390
TEVEL2-2                
1 63219U 25052K   26189.50651823  .00013021  00000+0  39012-3 0  9995
2 63219  97.3852  85.4689 0004704  73.9445 286.2316 15.34625790 73363
OTP-2                   
1 63235U 25052AB  26189.69578859  .00004852  00000+0  20138-3 0  9991
2 63235  97.3844  81.8058 0008308  88.6263 271.5926 15.24281264 73140
TEVEL2-9                
1 63237U 25052AD  26189.64245198  .00012819  00000+0  40918-3 0  9995
2 63237  97.3915  84.9331 0008135  74.7614 285.4527 15.32589963 73319
TEVEL2-7                
1 63238U 25052AE  26190.14472437  .00012598  00000+0  40596-3 0  9997
2 63238  97.3915  85.3410 0008177  73.4228 286.7911 15.32290225 73384
TEVEL2-8                
1 63239U 25052AF  26189.69605479  .00011621  00000+0  37502-3 0  9999
2 63239  97.3912  84.8694 0008175  75.3495 284.8653 15.32263765 73319
INNOSAT 16 (RS92S7)     
1 64878U 25155C   26190.30309456  .00004105  00000+0  16371-3 0  9999
2 64878  97.4574 157.3649 0012415 106.0429 254.2177 15.25696957 84040
GEOSCAN 6 (RS92S6)      
1 64879U 25155D   26190.28216856  .00006888  00000+0  23530-3 0  9993
2 64879  97.4564 158.9269 0010022  98.7310 261.5067 15.30577856 84145
GEOSCAN 1 (RS92S1)      
1 64880U 25155E   26190.27570674  .00008380  00000+0  28009-3 0  9990
2 64880  97.4561 159.0882 0009951  98.8445 261.3923 15.31218188 84157
239ALFEROV (RS61S)      
1 64881U 25155F   26190.27805096  .00011317  00000+0  35069-3 0  9998
2 64881  97.4560 159.7284 0009634  98.2467 261.9868 15.33557770 84199
GEOSCAN 2 (RS92S2)      
1 64890U 25155Q   26190.26557794  .00008583  00000+0  28456-3 0  9999
2 64890  97.4560 159.2391 0009262  88.8309 271.3993 15.31476927 84163
GEOSCAN 5 (RS92S5)      
1 64891U 25155R   26190.26254907  .00011032  00000+0  33876-3 0  9995
2 64891  97.4551 159.8586 0008636 102.3419 257.8790 15.33866635 84204
GEOSCAN 4 (RS92S4)      
1 64892U 25155S   26190.24445557  .00011208  00000+0  34233-3 0  9990
2 64892  97.4556 159.8953 0008595 102.4707 257.7498 15.34031176 84202
